{
    "links": {
        "self": "http://www.neowsapp.com/rest/v1/neo/3878617?api_key=iIulBulltgU6a56xZRHN4H3l9WmuAYTsLGpBGhQ2"
    },
    "id": "3878617",
    "neo_reference_id": "3878617",
    "name": "(2019 TJ5)",
    "designation": "2019 TJ5",
    "nasa_jpl_url": "http://ssd.jpl.nasa.gov/sbdb.cgi?sstr=3878617",
    "absolute_magnitude_h": 26.7,
    "estimated_diameter": {
        "kilometers": {
            "estimated_diameter_min": 0.0121494041,
            "estimated_diameter_max": 0.0271668934
        },
        "meters": {
            "estimated_diameter_min": 12.14940408,
            "estimated_diameter_max": 27.1668934089
        },
        "miles": {
            "estimated_diameter_min": 0.0075492874,
            "estimated_diameter_max": 0.0168807197
        },
        "feet": {
            "estimated_diameter_min": 39.8602508817,
            "estimated_diameter_max": 89.1302305717
        }
    },
    "is_potentially_hazardous_asteroid": false,
    "close_approach_data": [
        {
            "close_approach_date": "2015-06-10",
            "close_approach_date_full": "2015-Jun-10 00:18",
            "epoch_date_close_approach": 1433895480000,
            "relative_velocity": {
                "kilometers_per_second": "26.9555814581",
                "kilometers_per_hour": "97040.0932491704",
                "miles_per_hour": "60296.9401636304"
            },
            "miss_distance": {
                "astronomical": "0.4929357397",
                "lunar": "191.7520027433",
                "kilometers": "73742136.705994439",
                "miles": "45821238.9900196982"
            },
            "orbiting_body": "Earth"
        },
        {
            "close_approach_date": "2019-10-08",
            "close_approach_date_full": "2019-Oct-08 00:14",
            "epoch_date_close_approach": 1570493640000,
            "relative_velocity": {
                "kilometers_per_second": "11.564219719",
                "kilometers_per_hour": "41631.1909882517",
                "miles_per_hour": "25868.0030893389"
            },
            "miss_distance": {
                "astronomical": "0.0045930464",
                "lunar": "1.7866950496",
                "kilometers": "687109.958251168",
                "miles": "426950.3301073984"
            },
            "orbiting_body": "Moon"
        },
        {
            "close_approach_date": "2019-10-08",
            "close_approach_date_full": "2019-Oct-08 00:59",
            "epoch_date_close_approach": 1570496340000,
            "relative_velocity": {
                "kilometers_per_second": "12.5033785925",
                "kilometers_per_hour": "45012.1629329604",
                "miles_per_hour": "27968.8075735386"
            },
            "miss_distance": {
                "astronomical": "0.0063749993",
                "lunar": "2.4798747277",
                "kilometers": "953686.316531491",
                "miles": "592593.1981809358"
            },
            "orbiting_body": "Earth"
        },
        {
            "close_approach_date": "2107-06-22",
            "close_approach_date_full": "2107-Jun-22 10:44",
            "epoch_date_close_approach": 4338182640000,
            "relative_velocity": {
                "kilometers_per_second": "21.9309698295",
                "kilometers_per_hour": "78951.4913862839",
                "miles_per_hour": "49057.3864116607"
            },
            "miss_distance": {
                "astronomical": "0.3206006588",
                "lunar": "124.7136562732",
                "kilometers": "47961175.677076756",
                "miles": "29801692.6428849928"
            },
            "orbiting_body": "Earth"
        },
        {
            "close_approach_date": "2193-06-28",
            "close_approach_date_full": "2193-Jun-28 10:33",
            "epoch_date_close_approach": 7052697180000,
            "relative_velocity": {
                "kilometers_per_second": "5.7706136311",
                "kilometers_per_hour": "20774.209072069",
                "miles_per_hour": "12908.2856314753"
            },
            "miss_distance": {
                "astronomical": "1.4888490343",
                "lunar": "579.1622743427",
                "kilometers": "222728644.282836941",
                "miles": "138397161.9956781458"
            },
            "orbiting_body": "Juptr"
        }
    ],
    "orbital_data": {
        "orbit_id": "5",
        "orbit_determination_date": "2019-11-01 08:13:01",
        "first_observation_date": "2019-10-09",
        "last_observation_date": "2019-11-01",
        "data_arc_in_days": 23,
        "observations_used": 34,
        "orbit_uncertainty": "7",
        "minimum_orbit_intersection": ".00457818",
        "jupiter_tisserand_invariant": "3.075",
        "epoch_osculation": "2459000.5",
        "eccentricity": ".6478668142673746",
        "semi_major_axis": "2.604207837983962",
        "inclination": "2.693188545930053",
        "ascending_node_longitude": "18.90543970819415",
        "orbital_period": "1535.01240454207",
        "perihelion_distance": ".9170280022991655",
        "perihelion_argument": "316.6155664708079",
        "aphelion_distance": "4.291387673668759",
        "perihelion_time": "2458736.193023624527",
        "mean_anomaly": "61.98680298193162",
        "mean_motion": ".2345257920618539",
        "equinox": "J2000",
        "orbit_class": {
            "orbit_class_type": "APO",
            "orbit_class_description": "Near-Earth asteroid orbits which cross the Earth’s orbit similar to that of 1862 Apollo",
            "orbit_class_range": "a (semi-major axis) > 1.0 AU; q (perihelion) < 1.017 AU"
        }
    },
    "is_sentry_object": false
}